{"type": "FeatureCollection", "features": [ {"type": "Feature", "properties": {"norad_id": 66400, "name": "STARLINK-35667", "group": "last-30-days", "lat": 2.274266185026554, "lon": 98.54325996395382, "alt_km": 447.76648877023763, "timestamp": "2025-12-09T07:41:31.971086+00:00", "meta": {"OBJECT_NAME": "STARLINK-35667", "OBJECT_ID": "2025-257W", "EPOCH": "2025-12-09T00:00:02.000160", "MEAN_MOTION": 15.39599744, "ECCENTRICITY": 0.00014482, "INCLINATION": 53.1597, "RA_OF_ASC_NODE": 281.76, "ARG_OF_PERICENTER": 91.7126, "MEAN_ANOMALY": 108.0091, "EPHEMERIS_TYPE": 0, "CLASSIFICATION_TYPE": "U", "NORAD_CAT_ID": 66400, "ELEMENT_SET_NO": 999, "REV_AT_EPOCH": 589, "BSTAR": 0.00038345514, "MEAN_MOTION_DOT": 0.00014958, "MEAN_MOTION_DDOT": 0}, "tle": {"line1": "1 66400U 25257W   25343.00002315  .00014958  00000+0  38346-3 0  9998", "line2": "2 66400  53.1597 281.7600 0001448  91.7126 108.0091 15.39599744  5892"}}, "geometry": {"type": "Point", "coordinates": [98.54325996395382, 2.274266185026554]}}, {"type": "Feature", "properties": {"norad_id": 66401, "name": "STARLINK-35668", "group": "last-30-days", "lat": 0.8067949673458298, "lon": 99.640966082599, "alt_km": 447.88669851299164, "timestamp": "2025-12-09T07:41:31.971099+00:00", "meta": {"OBJECT_NAME": "STARLINK-35668", "OBJECT_ID": "2025-257X", "EPOCH": "2025-12-09T00:00:02.000160", "MEAN_MOTION": 15.39597067, "ECCENTRICITY": 0.00015787, "INCLINATION": 53.1598, "RA_OF_ASC_NODE": 281.7564, "ARG_OF_PERICENTER": 97.285, "MEAN_ANOMALY": 104.2716, "EPHEMERIS_TYPE": 0, "CLASSIFICATION_TYPE": "U", "NORAD_CAT_ID": 66401, "ELEMENT_SET_NO": 999, "REV_AT_EPOCH": 589, "BSTAR": 0.00045018356, "MEAN_MOTION_DOT": 0.00017636, "MEAN_MOTION_DDOT": 0}, "tle": {"line1": "1 66401U 25257X   25343.00002315  .00017636  00000+0  45018-3 0  9999", "line2": "2 66401  53.1598 281.7564 0001578  97.2850 104.2716 15.39597067  5890"}}, "geometry": {"type": "Point", "coordinates": [99.640966082599, 0.8067949673458298]}}, {"type": "Feature", "properties": {"norad_id": 66402, "name": "STARLINK-35644", "group": "last-30-days", "lat": 21.123472068180764, "lon": 83.46046558048958, "alt_km": 444.57010858476497, "timestamp": "2025-12-09T07:41:31.971110+00:00", "meta": {"OBJECT_NAME": "STARLINK-35644", "OBJECT_ID": "2025-257Y", "EPOCH": "2025-12-09T00:00:02.000160", "MEAN_MOTION": 15.39596533, "ECCENTRICITY": 0.00012753, "INCLINATION": 53.1599, "RA_OF_ASC_NODE": 281.8077, "ARG_OF_PERICENTER": 96.3661, "MEAN_ANOMALY": 79.4497, "EPHEMERIS_TYPE": 0, "CLASSIFICATION_TYPE": "U", "NORAD_CAT_ID": 66402, "ELEMENT_SET_NO": 999, "REV_AT_EPOCH": 589, "BSTAR": 0.00041575622, "MEAN_MOTION_DOT": 0.00016253, "MEAN_MOTION_DDOT": 0}, "tle": {"line1": "1 66402U 25257Y   25343.00002315  .00016253  00000+0  41576-3 0  9999", "line2": "2 66402  53.1599 281.8077 0001275  96.3661  79.4497 15.39596533  5892"}}, "geometry": {"type": "Point", "coordinates": [83.46046558048958, 21.123472068180764]}}, {"type": "Feature", "properties": {"norad_id": 66403, "name": "STARLINK-35602", "group": "last-30-days", "lat": -18.200120933455658, "lon": 114.46822434537101, "alt_km": 450.556510685371, "timestamp": "2025-12-09T07:41:31.971122+00:00", "meta": {"OBJECT_NAME": "STARLINK-35602", "OBJECT_ID": "2025-257Z", "EPOCH": "2025-12-09T00:00:02.000160", "MEAN_MOTION": 15.40521799, "ECCENTRICITY": 0.00014619, "INCLINATION": 53.1593, "RA_OF_ASC_NODE": 281.7092, "ARG_OF_PERICENTER": 87.8304, "MEAN_ANOMALY": 137.1708, "EPHEMERIS_TYPE": 0, "CLASSIFICATION_TYPE": "U", "NORAD_CAT_ID": 66403, "ELEMENT_SET_NO": 999, "REV_AT_EPOCH": 589, "BSTAR": -0.033975322, "MEAN_MOTION_DOT": -0.01266014, "MEAN_MOTION_DDOT": 0}, "tle": {"line1": "1 66403U 25257Z   25343.00002315 -.01266014  00000+0 -33975-1 0  9997", "line2": "2 66403  53.1593 281.7092 0001461  87.8304 137.1708 15.40521799  5890"}}, "geometry": {"type": "Point", "coordinates": [114.46822434537101, -18.200120933455658]}}, {"type": "Feature", "properties": {"norad_id": 66404, "name": "STARLINK-35691", "group": "last-30-days", "lat": -19.615573449212356, "lon": 115.69094229650177, "alt_km": 450.6524855448406, "timestamp": "2025-12-09T07:41:31.971133+00:00", "meta": {"OBJECT_NAME": "STARLINK-35691", "OBJECT_ID": "2025-257AA", "EPOCH": "2025-12-09T00:00:02.000160", "MEAN_MOTION": 15.40505093, "ECCENTRICITY": 0.0001391, "INCLINATION": 53.1593, "RA_OF_ASC_NODE": 281.7049, "ARG_OF_PERICENTER": 90.9853, "MEAN_ANOMALY": 135.8591, "EPHEMERIS_TYPE": 0, "CLASSIFICATION_TYPE": "U", "NORAD_CAT_ID": 66404, "ELEMENT_SET_NO": 999, "REV_AT_EPOCH": 589, "BSTAR": -0.033434385, "MEAN_MOTION_DOT": -0.01247083, "MEAN_MOTION_DDOT": 0}, "tle": {"line1": "1 66404U 25257AA  25343.00002315 -.01247083  00000+0 -33434-1 0  9993", "line2": "2 66404  53.1593 281.7049 0001391  90.9853 135.8591 15.40505093  5893"}}, "geometry": {"type": "Point", "coordinates": [115.69094229650177, -19.615573449212356]}}, {"type": "Feature", "properties": {"norad_id": 66405, "name": "STARLINK-35683", "group": "last-30-days", "lat": -36.09097435094763, "lon": 133.27761287445145, "alt_km": 443.99790934444354, "timestamp": "2025-12-09T07:41:31.971144+00:00", "meta": {"OBJECT_NAME": "STARLINK-35683", "OBJECT_ID": "2025-257AB", "EPOCH": "2025-12-09T00:00:02.000160", "MEAN_MOTION": 15.43864105, "ECCENTRICITY": 0.00015411, "INCLINATION": 53.1591, "RA_OF_ASC_NODE": 281.6662, "ARG_OF_PERICENTER": 95.4987, "MEAN_ANOMALY": 150.4407, "EPHEMERIS_TYPE": 0, "CLASSIFICATION_TYPE": "U", "NORAD_CAT_ID": 66405, "ELEMENT_SET_NO": 999, "REV_AT_EPOCH": 573, "BSTAR": -0.050800448, "MEAN_MOTION_DOT": -0.02078024, "MEAN_MOTION_DDOT": 0}, "tle": {"line1": "1 66405U 25257AB  25343.00002315 -.02078024  00000+0 -50800-1 0  9998", "line2": "2 66405  53.1591 281.6662 0001541  95.4987 150.4407 15.43864105  5734"}}, "geometry": {"type": "Point", "coordinates": [133.27761287445145, -36.09097435094763]}}, {"type": "Feature", "properties": {"norad_id": 66406, "name": "STARLINK-34840", "group": "last-30-days", "lat": -49.62908563488083, "lon": 161.96894811550712, "alt_km": 424.13047065031424, "timestamp": "2025-12-09T07:41:31.971155+00:00", "meta": {"OBJECT_NAME": "STARLINK-34840", "OBJECT_ID": "2025-257AC", "EPOCH": "2025-12-08T22:52:03.086400", "MEAN_MOTION": 15.49332535, "ECCENTRICITY": 0.00013871, "INCLINATION": 53.1582, "RA_OF_ASC_NODE": 281.8574, "ARG_OF_PERICENTER": 85.9939, "MEAN_ANOMALY": 274.1229, "EPHEMERIS_TYPE": 0, "CLASSIFICATION_TYPE": "U", "NORAD_CAT_ID": 66406, "ELEMENT_SET_NO": 999, "REV_AT_EPOCH": 573, "BSTAR": 0.001500885, "MEAN_MOTION_DOT": 0.00083997, "MEAN_MOTION_DDOT": 0}, "tle": {"line1": "1 66406U 25257AC  25342.95281350  .00083997  00000+0  15009-2 0  9994", "line2": "2 66406  53.1582 281.8574 0001387  85.9939 274.1229 15.49332535  5737"}}, "geometry": {"type": "Point", "coordinates": [161.96894811550712, -49.62908563488083]}}, {"type": "Feature", "properties": {"norad_id": 66407, "name": "STARLINK-35686", "group": "last-30-days", "lat": -45.238269525841545, "lon": 149.22939615081611, "alt_km": 435.05083292965264, "timestamp": "2025-12-09T07:41:31.971166+00:00", "meta": {"OBJECT_NAME": "STARLINK-35686", "OBJECT_ID": "2025-257AD", "EPOCH": "2025-12-08T16:00:03.000096", "MEAN_MOTION": 15.48445373, "ECCENTRICITY": 0.00012398, "INCLINATION": 53.1591, "RA_OF_ASC_NODE": 283.232, "ARG_OF_PERICENTER": 85.7776, "MEAN_ANOMALY": 113.5078, "EPHEMERIS_TYPE": 0, "CLASSIFICATION_TYPE": "U", "NORAD_CAT_ID": 66407, "ELEMENT_SET_NO": 999, "REV_AT_EPOCH": 584, "BSTAR": -0.042879039, "MEAN_MOTION_DOT": -0.02058872, "MEAN_MOTION_DDOT": 0}, "tle": {"line1": "1 66407U 25257AD  25342.66670139 -.02058872  00000+0 -42879-1 0  9992", "line2": "2 66407  53.1591 283.2320 0001239  85.7776 113.5078 15.48445373  5840"}}, "geometry": {"type": "Point", "coordinates": [149.22939615081611, -45.238269525841545]}}, {"type": "Feature", "properties": {"norad_id": 66408, "name": "STARLINK-35679", "group": "last-30-days", "lat": -48.85326429146898, "lon": 159.20132003276433, "alt_km": 424.298063221815, "timestamp": "2025-12-09T07:41:31.971177+00:00", "meta": {"OBJECT_NAME": "STARLINK-35679", "OBJECT_ID": "2025-257AE", "EPOCH": "2025-12-09T00:00:02.000160", "MEAN_MOTION": 15.49332174, "ECCENTRICITY": 0.00012508, "INCLINATION": 53.1587, "RA_OF_ASC_NODE": 281.6361, "ARG_OF_PERICENTER": 92.7418, "MEAN_ANOMALY": 168.9342, "EPHEMERIS_TYPE": 0, "CLASSIFICATION_TYPE": "U", "NORAD_CAT_ID": 66408, "ELEMENT_SET_NO": 999, "REV_AT_EPOCH": 589, "BSTAR": -0.0012657054, "MEAN_MOTION_DOT": -0.0007027, "MEAN_MOTION_DDOT": 0}, "tle": {"line1": "1 66408U 25257AE  25343.00002315 -.00070270  00000+0 -12657-2 0  9993", "line2": "2 66408  53.1587 281.6361 0001250  92.7418 168.9342 15.49332174  5895"}}, "geometry": {"type": "Point", "coordinates": [159.20132003276433, -48.85326429146898]}}, {"type": "Feature", "properties": {"norad_id": 66409, "name": "CHUTIAN-2 A", "group": "last-30-days", "lat": -55.52981801171578, "lon": -144.10050509996145, "alt_km": 726.4695959686333, "timestamp": "2025-12-09T07:41:31.971187+00:00", "meta": {"OBJECT_NAME": "CHUTIAN-2 A", "OBJECT_ID": "2025-256A", "EPOCH": "2025-12-08T23:58:51.457152", "MEAN_MOTION": 14.49932854, "ECCENTRICITY": 0.00135663, "INCLINATION": 98.2769, "RA_OF_ASC_NODE": 47.8258, "ARG_OF_PERICENTER": 189.1197, "MEAN_ANOMALY": 170.9753, "EPHEMERIS_TYPE": 0, "CLASSIFICATION_TYPE": "U", "NORAD_CAT_ID": 66409, "ELEMENT_SET_NO": 999, "REV_AT_EPOCH": 433, "BSTAR": 0.00039718858, "MEAN_MOTION_DOT": 1.494e-05, "MEAN_MOTION_DDOT": 0}, "tle": {"line1": "1 66409U 25256A   25342.99920668  .00001494  00000+0  39719-3 0  9999", "line2": "2 66409  98.2769  47.8258 0013566 189.1197 170.9753 14.49932854  4330"}}, "geometry": {"type": "Point", "coordinates": [-144.10050509996145, -55.52981801171578]}}]}